0 SL-8 DEB
1 21158U 91009V   13280.78862869  .00000257  00000-0  27379-2 0   966
2 21158 074.1033 044.9757 0141283 134.8457 033.0317 12.13857260  1232
0 SL-8 DEB
1 21158U 91009V   13283.06798434  .00000216  00000-0  23223-2 0   976
2 21158 074.1039 042.1583 0141251 131.6132 273.5748 12.13858652  1511
0 SL-8 DEB
1 21158U 91009V   13287.35614878 -.00000162  00000-0 -15073-2 0   999
2 21158 074.1048 036.8588 0141153 125.5531 292.4016 12.13862893  2030
0 SL-8 DEB
1 21158U 91009V   13289.51470877 -.00000283  00000-0 -27295-2 0  1004
2 21158 074.1048 034.1914 0141112 122.4944 005.1104 12.13863139  2292
0 SL-8 DEB
1 21158U 91009V   13291.98470146 -.00000215  00000-0 -20483-2 0  1015
2 21158 074.1045 031.1391 0141070 118.9904 358.7613 12.13861381  2596
0 SL-8 DEB
1 21158U 91009V   13294.44892135 -.00000004  00000-0  92932-4 0  1021
2 21158 074.1043 028.0938 0141013 115.4987 327.1732 12.13858714  2897
